{
  "layers": {
    "park": {
      "version": 2,
      "extent": 4096,
      "propertyNames": [
        "name:pt",
        "name_int",
        "name:de",
        "name_de",
        "name",
        "rank",
        "name:en",
        "class",
        "name:latin",
        "name_en",
        "name:fr"
      ],
      "propertyValues": [
        "Área Marinha Protegida do Banco Princesa Alice",
        "Princess Alice Bank Marine Protected Area",
        "Meeresschutzgebiet Princess-Alice-Bank",
        "1",
        "área_marinha_protegida_para_a_gestão_de_habitats_ou_espécies",
        "Área Marinha Protegida do Monte Submarino Altair",
        "Área Marinha Protegida Oceânica do Corvo",
        "Aire Marine Protégée Océanique de Corvo",
        "Área Marinha Protegida de perímetro de proteção e gestão de recursos localizada a sudoeste dos Açores",
        "Aire Marine Protégée du périmètre de protection et de gestion des ressources localisées au sud-ouest des Açores",
        "área_marinha_protegida_para_a_gestão_de_recursos",
        "Área Marinha Protegida do MARNA",
        "Área Marinha Protegida Oceânica do Faial",
        "Aire Marine Protégée Océanique de Faial"
      ],
      "features": [
        {
          "id": 75124073,
          "type": 1,
          "pts": [
            {
              "x": 7336,
              "y": 2809
            }
          ],
          "props": {
            "name:pt": "Área Marinha Protegida do Banco Princesa Alice",
            "name_int": "Princess Alice Bank Marine Protected Area",
            "name:de": "Meeresschutzgebiet Princess-Alice-Bank",
            "name_de": "Meeresschutzgebiet Princess-Alice-Bank",
            "name": "Área Marinha Protegida do Banco Princesa Alice",
            "rank": "1",
            "name:en": "Princess Alice Bank Marine Protected Area",
            "class": "área_marinha_protegida_para_a_gestão_de_habitats_ou_espécies",
            "name:latin": "Área Marinha Protegida do Banco Princesa Alice",
            "name_en": "Princess Alice Bank Marine Protected Area"
          }
        },
        {
          "id": 75124103,
          "type": 1,
          "pts": [
            {
              "x": 3914,
              "y": -3584
            }
          ],
          "props": {
            "name_int": "Área Marinha Protegida do Monte Submarino Altair",
            "name_de": "Área Marinha Protegida do Monte Submarino Altair",
            "name": "Área Marinha Protegida do Monte Submarino Altair",
            "rank": "1",
            "class": "área_marinha_protegida_para_a_gestão_de_habitats_ou_espécies",
            "name:latin": "Área Marinha Protegida do Monte Submarino Altair",
            "name_en": "Área Marinha Protegida do Monte Submarino Altair"
          }
        },
        {
          "id": 75124143,
          "type": 1,
          "pts": [
            {
              "x": 5589,
              "y": -205
            }
          ],
          "props": {
            "name_int": "Área Marinha Protegida Oceânica do Corvo",
            "name_de": "Área Marinha Protegida Oceânica do Corvo",
            "name": "Área Marinha Protegida Oceânica do Corvo",
            "name:fr": "Aire Marine Protégée Océanique de Corvo",
            "rank": "1",
            "class": "área_marinha_protegida_para_a_gestão_de_habitats_ou_espécies",
            "name:latin": "Área Marinha Protegida Oceânica do Corvo",
            "name_en": "Área Marinha Protegida Oceânica do Corvo"
          }
        },
        {
          "id": 75124043,
          "type": 1,
          "pts": [
            {
              "x": 4842,
              "y": 3662
            }
          ],
          "props": {
            "name:pt": "Área Marinha Protegida de perímetro de proteção e gestão de recursos localizada a sudoeste dos Açores",
            "name_int": "Área Marinha Protegida de perímetro de proteção e gestão de recursos localizada a sudoeste dos Açores",
            "name_de": "Área Marinha Protegida de perímetro de proteção e gestão de recursos localizada a sudoeste dos Açores",
            "name": "Área Marinha Protegida de perímetro de proteção e gestão de recursos localizada a sudoeste dos Açores",
            "name:fr": "Aire Marine Protégée du périmètre de protection et de gestion des ressources localisées au sud-ouest des Açores",
            "rank": "1",
            "class": "área_marinha_protegida_para_a_gestão_de_recursos",
            "name:latin": "Área Marinha Protegida de perímetro de proteção e gestão de recursos localizada a sudoeste dos Açores",
            "name_en": "Área Marinha Protegida de perímetro de proteção e gestão de recursos localizada a sudoeste dos Açores"
          }
        },
        {
          "id": 75124083,
          "type": 1,
          "pts": [
            {
              "x": 7883,
              "y": -2987
            }
          ],
          "props": {
            "name_int": "Área Marinha Protegida do MARNA",
            "name_de": "Área Marinha Protegida do MARNA",
            "name": "Área Marinha Protegida do MARNA",
            "rank": "1",
            "class": "área_marinha_protegida_para_a_gestão_de_habitats_ou_espécies",
            "name:latin": "Área Marinha Protegida do MARNA",
            "name_en": "Área Marinha Protegida do MARNA"
          }
        },
        {
          "id": 75124133,
          "type": 1,
          "pts": [
            {
              "x": 7185,
              "y": -707
            }
          ],
          "props": {
            "name_int": "Área Marinha Protegida Oceânica do Faial",
            "name_de": "Área Marinha Protegida Oceânica do Faial",
            "name": "Área Marinha Protegida Oceânica do Faial",
            "name:fr": "Aire Marine Protégée Océanique de Faial",
            "rank": "1",
            "class": "área_marinha_protegida_para_a_gestão_de_habitats_ou_espécies",
            "name:latin": "Área Marinha Protegida Oceânica do Faial",
            "name_en": "Área Marinha Protegida Oceânica do Faial"
          }
        },
        {
          "id": 75124043,
          "type": 3,
          "pts": [
            {
              "x": 4160,
              "y": 4160
            },
            {
              "x": 4038,
              "y": 4160
            },
            {
              "x": 4160,
              "y": 4020
            },
            {
              "x": 4160,
              "y": 4160
            }
          ],
          "props": {
            "name": "Área Marinha Protegida de perímetro de proteção e gestão de recursos localizada a sudoeste dos Açores",
            "name_int": "Área Marinha Protegida de perímetro de proteção e gestão de recursos localizada a sudoeste dos Açores",
            "class": "área_marinha_protegida_para_a_gestão_de_recursos",
            "name:latin": "Área Marinha Protegida de perímetro de proteção e gestão de recursos localizada a sudoeste dos Açores",
            "name_de": "Área Marinha Protegida de perímetro de proteção e gestão de recursos localizada a sudoeste dos Açores",
            "name_en": "Área Marinha Protegida de perímetro de proteção e gestão de recursos localizada a sudoeste dos Açores"
          }
        }
      ]
    },
    "place": {
      "version": 2,
      "extent": 4096,
      "propertyNames": [
        "name:oc",
        "name_int",
        "name:ka",
        "name:sl",
        "name:ga",
        "name:ca",
        "name:kn",
        "name:sv",
        "name:ko",
        "name_de",
        "rank",
        "name:ta",
        "name:latin",
        "name:vi",
        "name:ar",
        "name:ja",
        "name:fa",
        "name:ro",
        "name:nl",
        "name:be",
        "name:fi",
        "name:ru",
        "name",
        "name:bn",
        "name:fr",
        "name:uk",
        "name:id",
        "name:ur",
        "name:el",
        "name:it",
        "name:en",
        "name:eo",
        "class",
        "name:eu",
        "name:es",
        "name:zh",
        "name:th",
        "name:te",
        "name:cy",
        "name:pl",
        "name:da",
        "name:he",
        "name:tr",
        "name:pt",
        "name:de",
        "name:hi",
        "name:lt",
        "name:lv",
        "name:hu",
        "name_en"
      ],
      "propertyValues": [
        "Horta",
        "ორტა",
        "ಹೊರ್ಟ",
        "오르타",
        "7",
        "ஹோர்ட்டா",
        "أُرتة",
        "オルタ",
        "اورتا",
        "Орта",
        "হোর্তা",
        "ہورتا",
        "Όρτα",
        "city",
        "奧爾塔",
        "ออร์ตา",
        "హూర్ట",
        "הורטה",
        "होर्ता",
        "Orta"
      ],
      "features": [
        {
          "id": 252706841,
          "type": 1,
          "pts": [
            {
              "x": 7824,
              "y": 2315
            }
          ],
          "props": {
            "name:oc": "Horta",
            "name_int": "Horta",
            "name:ka": "ორტა",
            "name:sl": "Horta",
            "name:ga": "Horta",
            "name:ca": "Horta",
            "name:kn": "ಹೊರ್ಟ",
            "name:sv": "Horta",
            "name:ko": "오르타",
            "name_de": "Horta",
            "rank": "7",
            "name:ta": "ஹோர்ட்டா",
            "name:latin": "Horta",
            "name:vi": "Horta",
            "name:ar": "أُرتة",
            "name:ja": "オルタ",
            "name:fa": "اورتا",
            "name:ro": "Horta",
            "name:nl": "Horta",
            "name:be": "Орта",
            "name:fi": "Horta",
            "name:ru": "Орта",
            "name": "Horta",
            "name:bn": "হোর্তা",
            "name:fr": "Horta",
            "name:uk": "Орта",
            "name:id": "Horta",
            "name:ur": "ہورتا",
            "name:el": "Όρτα",
            "name:it": "Horta",
            "name:en": "Horta",
            "name:eo": "Horta",
            "class": "city",
            "name:eu": "Horta",
            "name:es": "Horta",
            "name:zh": "奧爾塔",
            "name:th": "ออร์ตา",
            "name:te": "హూర్ట",
            "name:cy": "Horta",
            "name:pl": "Horta",
            "name:da": "Horta",
            "name:he": "הורטה",
            "name:tr": "Horta",
            "name:pt": "Horta",
            "name:de": "Horta",
            "name:hi": "होर्ता",
            "name:lt": "Horta",
            "name:lv": "Orta",
            "name:hu": "Horta",
            "name_en": "Horta"
          }
        }
      ]
    },
    "water": {
      "version": 2,
      "extent": 4096,
      "propertyNames": [
        "class"
      ],
      "propertyValues": [
        "ocean"
      ],
      "features": [
        {
          "id": 4970,
          "type": 3,
          "pts": [
            {
              "x": -64,
              "y": -64
            },
            {
              "x": 4160,
              "y": -64
            },
            {
              "x": 4160,
              "y": 4160
            },
            {
              "x": -64,
              "y": 4160
            },
            {
              "x": -64,
              "y": -64
            }
          ],
          "props": {
            "class": "ocean"
          }
        }
      ]
    },
    "water_name": {
      "version": 2,
      "extent": 4096,
      "propertyNames": [
        "name:oc",
        "name_int",
        "name:bs",
        "name:sk",
        "intermittent",
        "name:sl",
        "name:ga",
        "name:gd",
        "name:ca",
        "name:sv",
        "name:ko",
        "name_de",
        "name:ku",
        "name:cs",
        "name:latin",
        "name:vi",
        "name:ar",
        "name:ja",
        "name:fa",
        "name:ro",
        "name:nl",
        "name:be",
        "name:fi",
        "name:ru",
        "name:no",
        "name:bg",
        "name",
        "name:fr",
        "name:br",
        "name:hy",
        "name:uk",
        "name:mk",
        "name:el",
        "name:it",
        "name:en",
        "name:eo",
        "name:is",
        "class",
        "name:eu",
        "name:es",
        "name:zh",
        "name:th",
        "name:te",
        "name:la",
        "name:cy",
        "name:lb",
        "name:pl",
        "name:da",
        "name:he",
        "name:tr",
        "name:pt",
        "name:de",
        "name:lt",
        "name:hr",
        "name:zh-Hans",
        "name:zh-Hant",
        "name:hu",
        "name_en"
      ],
      "propertyValues": [
        "ocean Atlantic nòrd",
        "North Atlantic Ocean",
        "Sjevernoatlantski okean",
        "Severný Atlantický oceán",
        "0",
        "Severni Atlantski ocean",
        "Aigéan an Atlantaigh Thuaidh",
        "An Cuan Siar a Tuath",
        "Atlàntic Nord",
        "Nordatlanten",
        "북대서양",
        "Nordatlantischer Ozean",
        "Bakura Okyanûsa Atlantîk",
        "Severní Atlantský oceán",
        "Bắc Đại Tây Dương",
        "شمال المحيط الأطلسي",
        "北大西洋",
        "اقیانوس اطلس شمالی",
        "Atlanticul de Nord",
        "Noord Atlantische Oceaan",
        "Паўночны Атлантычны акіян",
        "Pohjois-Atlantin valtameri",
        "Северный Атлантический океан",
        "Nord-Atlanteren",
        "Северен Атлантически океан",
        "Océan Atlantique Nord",
        "Meurvor Norzh Atlantel",
        "Հյուսիսային Ատլանտիկա",
        "Північна Атлантика",
        "Северен Атлантски Океан",
        "Βόρειος Ατλαντικός Ωκεανός",
        "Atlantico settentrionale",
        "Norda Atlantiko",
        "Norður-Atlantshaf",
        "sea",
        "Ipar Ozeano Atlantikoa",
        "Océano Atlántico Norte",
        "มหาสมุทรแอตแลนติกเหนือ",
        "ఉత్తర అట్లాంటిక్ మహాసముద్రం",
        "Oceanus Atlanticus Septentrionalis",
        "Gogledd Cefnfor yr Iwerydd",
        "Nordatlantik",
        "Północny Atlantyk",
        "צפון האוקיינוס האטלנטי",
        "Kuzey Atlantik Okyanusu",
        "Oceano Atlântico Norte",
        "Šiaurės Atlanto vandenynas",
        "Sjeverni Atlantski ocean",
        "Észak-Atlanti-óceán"
      ],
      "features": [
        {
          "id": 3056397261,
          "type": 1,
          "pts": [
            {
              "x": -455,
              "y": 938
            }
          ],
          "props": {
            "name:oc": "ocean Atlantic nòrd",
            "name_int": "North Atlantic Ocean",
            "name:bs": "Sjevernoatlantski okean",
            "name:sk": "Severný Atlantický oceán",
            "intermittent": "0",
            "name:sl": "Severni Atlantski ocean",
            "name:ga": "Aigéan an Atlantaigh Thuaidh",
            "name:gd": "An Cuan Siar a Tuath",
            "name:ca": "Atlàntic Nord",
            "name:sv": "Nordatlanten",
            "name:ko": "북대서양",
            "name_de": "Nordatlantischer Ozean",
            "name:ku": "Bakura Okyanûsa Atlantîk",
            "name:cs": "Severní Atlantský oceán",
            "name:latin": "North Atlantic Ocean",
            "name:vi": "Bắc Đại Tây Dương",
            "name:ar": "شمال المحيط الأطلسي",
            "name:ja": "北大西洋",
            "name:fa": "اقیانوس اطلس شمالی",
            "name:ro": "Atlanticul de Nord",
            "name:nl": "Noord Atlantische Oceaan",
            "name:be": "Паўночны Атлантычны акіян",
            "name:fi": "Pohjois-Atlantin valtameri",
            "name:ru": "Северный Атлантический океан",
            "name:no": "Nord-Atlanteren",
            "name:bg": "Северен Атлантически океан",
            "name": "North Atlantic Ocean",
            "name:fr": "Océan Atlantique Nord",
            "name:br": "Meurvor Norzh Atlantel",
            "name:hy": "Հյուսիսային Ատլանտիկա",
            "name:uk": "Північна Атлантика",
            "name:mk": "Северен Атлантски Океан",
            "name:el": "Βόρειος Ατλαντικός Ωκεανός",
            "name:it": "Atlantico settentrionale",
            "name:en": "North Atlantic Ocean",
            "name:eo": "Norda Atlantiko",
            "name:is": "Norður-Atlantshaf",
            "class": "sea",
            "name:eu": "Ipar Ozeano Atlantikoa",
            "name:es": "Océano Atlántico Norte",
            "name:zh": "北大西洋",
            "name:th": "มหาสมุทรแอตแลนติกเหนือ",
            "name:te": "ఉత్తర అట్లాంటిక్ మహాసముద్రం",
            "name:la": "Oceanus Atlanticus Septentrionalis",
            "name:cy": "Gogledd Cefnfor yr Iwerydd",
            "name:lb": "Nordatlantik",
            "name:pl": "Północny Atlantyk",
            "name:da": "Nordatlanten",
            "name:he": "צפון האוקיינוס האטלנטי",
            "name:tr": "Kuzey Atlantik Okyanusu",
            "name:pt": "Oceano Atlântico Norte",
            "name:de": "Nordatlantischer Ozean",
            "name:lt": "Šiaurės Atlanto vandenynas",
            "name:hr": "Sjeverni Atlantski ocean",
            "name:zh-Hans": "北大西洋",
            "name:zh-Hant": "北大西洋",
            "name:hu": "Észak-Atlanti-óceán",
            "name_en": "North Atlantic Ocean"
          }
        }
      ]
    }
  },
  "tileid": "6/25/24"
}